API VERSION: 1.2
API SOURCE: NASA/JPL Horizons API

*******************************************************************************
 Revised: April 12, 2021               Jupiter                              599
 
 PHYSICAL DATA:
  Mass x 10^22 (g)      = 189818722 +- 8817 Density (g/cm^3)  = 1.3262 +- .0003
  Equat. radius (1 bar) = 71492+-4 km       Polar radius (km)     = 66854+-10
  Vol. Mean Radius (km) = 69911+-6          Flattening            = 0.06487
  Geometric Albedo      = 0.52              Rocky core mass (Mc/M)= 0.0261
  Sid. rot. period (III)= 9h 55m 29.71 s    Sid. rot. rate (rad/s)= 0.00017585
  Mean solar day, hrs   = ~9.9259         
  GM (km^3/s^2)         = 126686531.900     GM 1-sigma (km^3/s^2) =  +- 1.2732
  Equ. grav, ge (m/s^2) = 24.79             Pol. grav, gp (m/s^2) =  28.34
  Vis. magnitude V(1,0) = -9.40
  Vis. mag. (opposition)= -2.70             Obliquity to orbit    =  3.13 deg
  Sidereal orbit period = 11.861982204 y    Sidereal orbit period = 4332.589 d
  Mean daily motion     = 0.0831294 deg/d   Mean orbit speed, km/s= 13.0697
  Atmos. temp. (1 bar)  = 165+-5 K          Escape speed, km/s    =  59.5           
  A_roche(ice)/Rp       =  2.76             Hill's sphere rad. Rp = 740
                                 Perihelion   Aphelion     Mean
  Solar Constant (W/m^2)         56           46           51
  Maximum Planetary IR (W/m^2)   13.7         13.4         13.6
  Minimum Planetary IR (W/m^2)   13.7         13.4         13.6
*******************************************************************************


*******************************************************************************
Ephemeris / API_USER Fri May 10 08:56:19 2024 Pasadena, USA      / Horizons
*******************************************************************************
Target body name: Jupiter (599)                   {source: jup365_merged}
Center body name: Sun (10)                        {source: jup365_merged}
Center-site name: BODY CENTER
*******************************************************************************
Start time      : A.D. 2006-Jan-01 00:00:00.0000 TDB
Stop  time      : A.D. 2007-Jan-01 00:00:00.0000 TDB
Step-size       : 1440 minutes
*******************************************************************************
Center geodetic : 0.0, 0.0, 0.0                   {E-lon(deg),Lat(deg),Alt(km)}
Center cylindric: 0.0, 0.0, 0.0                   {E-lon(deg),Dxy(km),Dz(km)}
Center radii    : 695700.0, 695700.0, 695700.0 km {Equator_a, b, pole_c}
Output units    : KM-S
Calendar mode   : Mixed Julian/Gregorian
Output type     : GEOMETRIC cartesian states
Output format   : 3 (position, velocity, LT, range, range-rate)
Reference frame : Ecliptic of J2000.0
*******************************************************************************
            JDTDB,            Calendar Date (TDB),                      X,                      Y,                      Z,                     VX,                     VY,                     VZ,                     LT,                     RG,                     RR,
**************************************************************************************************************************************************************************************************************************************************************************
$$SOE
2454072.500000000, A.D. 2006-Dec-03 00:00:00.0000, -3.985668847727602E+08, -6.980239030226151E+08,  1.181655686393633E+07,  1.119237214252444E+01, -5.868953740186102E+00, -2.261542119352660E-01,  2.681474773627311E+03,  8.038859134507248E+08, -4.564220614463524E-01,
2454073.500000000, A.D. 2006-Dec-04 00:00:00.0000, -3.975994122134922E+08, -6.985303779904135E+08,  1.179700475007731E+07,  1.120286372969213E+01, -5.853835787775333E+00, -2.263978413464280E-01,  2.681343211819003E+03,  8.038464722128335E+08, -4.576007205730535E-01,
2454074.500000000, A.D. 2006-Dec-05 00:00:00.0000, -3.966311679461120E+08, -6.990354761847599E+08,  1.177743206761390E+07,  1.121076394859804E+01, -5.839298552692562E+00, -2.267037600150759E-01,  2.681211328841862E+03,  8.038069346909482E+08, -4.569897650963476E-01,
2454075.500000000, A.D. 2006-Dec-06 00:00:00.0000, -3.956620585782926E+08, -6.995392919700398E+08,  1.175783642936045E+07,  1.122131641979862E+01, -5.822060878525511E+00, -2.268762717502422E-01,  2.681079245780237E+03,  8.037673371852431E+08, -4.600291238924030E-01,
2454076.500000000, A.D. 2006-Dec-07 00:00:00.0000, -3.946922486462398E+08, -7.000416503763076E+08,  1.173822182431549E+07,  1.122890201705589E+01, -5.807182121032808E+00, -2.271708837353019E-01,  2.680946726373999E+03,  8.037276088667145E+08, -4.595559603117427E-01,
2454077.500000000, A.D. 2006-Dec-08 00:00:00.0000, -3.937216925194441E+08, -7.005426590147979E+08,  1.171858567000407E+07,  1.123655292240218E+01, -5.790525660666949E+00, -2.273977132802019E-01,  2.680814008100394E+03,  8.036878209292489E+08, -4.606629106704814E-01,
2454078.500000000, A.D. 2006-Dec-09 00:00:00.0000, -3.927504996975892E+08, -7.010424205978374E+08,  1.169892229406187E+07,  1.124607470660352E+01, -5.777430043668131E+00, -2.277332939545147E-01,  2.680681568627648E+03,  8.036481165741780E+08, -4.595819295780409E-01,
2454079.500000000, A.D. 2006-Dec-10 00:00:00.0000, -3.917784519501082E+08, -7.015408496158562E+08,  1.167923743187663E+07,  1.125419169533973E+01, -5.761070621414210E+00, -2.279750177821600E-01,  2.680548804331432E+03,  8.036083148394812E+08, -4.606547610713146E-01,
2454080.500000000, A.D. 2006-Dec-11 00:00:00.0000, -3.908056523330676E+08, -7.020380038654172E+08,  1.165952775803837E+07,  1.126465300409876E+01, -5.746000482208902E+00, -2.282210119035923E-01,  2.680416052697785E+03,  8.035685169009264E+08, -4.617407206133819E-01,
2454081.500000000, A.D. 2006-Dec-12 00:00:00.0000, -3.898320647783365E+08, -7.025337477059231E+08,  1.163979899906471E+07,  1.127232926268812E+01, -5.730694468388912E+00, -2.285018749829604E-01,  2.680282861278569E+03,  8.035285871179751E+08, -4.616747323531779E-01,
2454082.500000000, A.D. 2006-Dec-13 00:00:00.0000, -3.888576407698396E+08, -7.030281907316893E+08,  1.162004756987229E+07,  1.128304976077583E+01, -5.713485012389222E+00, -2.286726770199254E-01,  2.680149472225631E+03,  8.034885980859245E+08, -4.647437037760461E-01,
2454083.500000000, A.D. 2006-Dec-14 00:00:00.0000, -3.878825112806257E+08, -7.035211274945856E+08,  1.160027899149868E+07,  1.129010693967624E+01, -5.697924993116615E+00, -2.289508797276456E-01,  2.680015498766437E+03,  8.034484338532861E+08, -4.645977205300169E-01,
2454084.500000000, A.D. 2006-Dec-15 00:00:00.0000, -3.869066672431303E+08, -7.040126903579544E+08,  1.158048931619078E+07,  1.129772921871149E+01, -5.680831951080615E+00, -2.291607024675368E-01,  2.679881312275547E+03,  8.034082057553518E+08, -4.660678898467017E-01,
2454085.500000000, A.D. 2006-Dec-16 00:00:00.0000, -3.859302377242316E+08, -7.045029561203587E+08,  1.156067366597867E+07,  1.130622409317218E+01, -5.667686412489399E+00, -2.295070341929466E-01,  2.679747344230191E+03,  8.033680431457411E+08, -4.645008961827180E-01,
2454086.500000000, A.D. 2006-Dec-17 00:00:00.0000, -3.849529921651791E+08, -7.049919021022432E+08,  1.154083570152238E+07,  1.131416705002814E+01, -5.651064694522386E+00, -2.297399543656518E-01,  2.679613159121739E+03,  8.033278154622512E+08, -4.657115012542874E-01,
2454087.500000000, A.D. 2006-Dec-18 00:00:00.0000, -3.839750505618855E+08, -7.054795648048180E+08,  1.152097255904534E+07,  1.132400458520189E+01, -5.636447950485976E+00, -2.300093750802121E-01,  2.679479056939446E+03,  8.032876126393985E+08, -4.660675850341433E-01,
2454088.500000000, A.D. 2006-Dec-19 00:00:00.0000, -3.829963392280968E+08, -7.059658332181294E+08,  1.150108973143792E+07,  1.133127441886034E+01, -5.620935047477084E+00, -2.302854098703859E-01,  2.679344596009007E+03,  8.032473022665570E+08, -4.659798533551697E-01,
2454089.500000000, A.D. 2006-Dec-20 00:00:00.0000, -3.820168384378338E+08, -7.064508310371647E+08,  1.148118273536754E+07,  1.134198589496332E+01, -5.604474926969964E+00, -2.304803429215334E-01,  2.679210108610433E+03,  8.032069839587686E+08, -4.683597353640709E-01,
2454090.500000000, A.D. 2006-Dec-21 00:00:00.0000, -3.810366183834745E+08, -7.069343357402656E+08,  1.146125852230081E+07,  1.134878295547608E+01, -5.588791972924092E+00, -2.307561318481506E-01,  2.679075054793065E+03,  8.031664958428975E+08, -4.681939507960640E-01,
2454091.500000000, A.D. 2006-Dec-22 00:00:00.0000, -3.800556925477408E+08, -7.074164908532741E+08,  1.144131240363422E+07,  1.135678085319775E+01, -5.571881743493766E+00, -2.309640001536937E-01,  2.678939877022017E+03,  8.031259705666484E+08, -4.696781413466442E-01,
2454092.500000000, A.D. 2006-Dec-23 00:00:00.0000, -3.790741833464249E+08, -7.078973340119386E+08,  1.142134109573784E+07,  1.136478851254446E+01, -5.558875742238611E+00, -2.313193656285377E-01,  2.678804879049290E+03,  8.030854991925794E+08, -4.677292567451692E-01,
2454093.500000000, A.D. 2006-Dec-24 00:00:00.0000, -3.780918505233749E+08, -7.083768897572449E+08,  1.140134664073643E+07,  1.137325035960640E+01, -5.542187907147287E+00, -2.315405968906352E-01,  2.678669755167387E+03,  8.030449900718889E+08, -4.692331339827354E-01,
2454094.500000000, A.D. 2006-Dec-25 00:00:00.0000, -3.771088182984178E+08, -7.088551481868796E+08,  1.138132763914785E+07,  1.138300255858513E+01, -5.527820477790745E+00, -2.318195985754550E-01,  2.678534673117008E+03,  8.030044934919740E+08, -4.692938302086931E-01,
2454095.500000000, A.D. 2006-Dec-26 00:00:00.0000, -3.761249853288274E+08, -7.093320108545979E+08,  1.136128955539671E+07,  1.139051114609953E+01, -5.511742059815489E+00, -2.320704483341938E-01,  2.678399185568671E+03,  8.029638753468301E+08, -4.698061647064516E-01,
